ONEWEB-0314             
1 49100U 21075AB  25334.58513064  .00000006  00000+0 -18152-4 0  9995
2 49100  87.9134  45.3306 0001326 101.0798 259.0483 13.17648297207410
ONEWEB-0315             
1 49101U 21075AC  25334.61159228  .00000467  00000+0  12616-2 0  9995
2 49101  87.8953  30.0893 0001610 111.5173 248.6128 13.12443298209129
ONEWEB-0316             
1 49102U 21075AD  25334.59006844 -.00000005  00000+0 -44429-4 0  9997
2 49102  87.9193  14.9125 0001761  99.9922 260.1409 13.18685162211032
ONEWEB-0317             
1 49103U 21075AE  25334.60509848  .00000344  00000+0  91964-3 0  9991
2 49103  87.8957  30.1079 0002125  78.8588 281.2779 13.12443734209141
ONEWEB-0318             
1 49104U 21075AF  25334.58676669 -.00000009  00000+0 -55536-4 0  9991
2 49104  87.9193  14.9004 0001612 104.9682 255.1629 13.18685050210993
ONEWEB-0319             
1 49105U 21075AG  25334.60031806  .00000003  00000+0 -25514-4 0  9999
2 49105  87.9122  45.3629 0001431 112.5552 247.5731 13.17649112207451
ONEWEB-0323             
1 49106U 21075AH  25334.59536756  .00000163  00000+0  41778-3 0  9997
2 49106  87.8954  30.0963 0001216 118.3991 241.7260 13.12444230208507
ONEWEB-0329             
1 49107U 21075AJ  25334.60876528 -.00000072  00000+0 -21734-3 0  9995
2 49107  87.9121  45.3631 0001600 101.8626 258.2685 13.17648901207436
ONEWEB-0330             
1 49108U 21075AK  25334.60959760 -.00000031  00000+0 -11341-3 0  9994
2 49108  87.9123  45.3683 0001555  95.5201 264.6108 13.17648649207477
ONEWEB-0292             
1 49186U 21083A   25334.49439519 -.00000276  00000+0 -78951-3 0  9992
2 49186  87.8978 359.7541 0001679  98.7538 261.3781 13.13470555204844
ONEWEB-0303             
1 49187U 21083B   25334.58347088  .00000009  00000+0 -11109-4 0  9998
2 49187  87.9197  14.9023 0001664 102.9275 257.2043 13.18685101203804
ONEWEB-0306             
1 49188U 21083C   25334.34594566  .00000036  00000+0  58827-4 0  9995
2 49188  87.9194  14.9346 0001947  91.0089 269.1267 13.18685216203813
ONEWEB-0307             
1 49189U 21083D   25334.48846500 -.00000298  00000+0 -84975-3 0  9993
2 49189  87.8976 359.7472 0001775  94.5276 265.6056 13.13469127204843
ONEWEB-0320             
1 49190U 21083E   25334.50512628  .00000003  00000+0 -25821-4 0  9998
2 49190  87.9190  14.9325 0001800  96.4513 263.6824 13.18683934203798
ONEWEB-0321             
1 49191U 21083F   25334.49086770  .00000100  00000+0  21279-3 0  9990
2 49191  87.9192 314.0599 0002076  79.8824 280.2544 13.20769622210608
ONEWEB-0322             
1 49192U 21083G   25334.48423821 -.00000316  00000+0 -90065-3 0  9992
2 49192  87.8980 359.7501 0002229  89.4549 270.6836 13.13469950204831
