[{"OBJECT_NAME":"ONEWEB-0314","OBJECT_ID":"2021-075AB","EPOCH":"2025-11-30T14:02:35.287296","MEAN_MOTION":13.17648297,"ECCENTRICITY":0.00013266,"INCLINATION":87.9134,"RA_OF_ASC_NODE":45.3306,"ARG_OF_PERICENTER":101.0798,"MEAN_ANOMALY":259.0483,"EPHEMERIS_TYPE":0,"CLASSIFICATION_TYPE":"U","NORAD_CAT_ID":49100,"ELEMENT_SET_NO":999,"REV_AT_EPOCH":20741,"BSTAR":-1.8151563e-5,"MEAN_MOTION_DOT":6.0e-8,"MEAN_MOTION_DDOT":0},{"OBJECT_NAME":"ONEWEB-0315","OBJECT_ID":"2021-075AC","EPOCH":"2025-11-30T14:40:41.572992","MEAN_MOTION":13.12443298,"ECCENTRICITY":0.00016103,"INCLINATION":87.8953,"RA_OF_ASC_NODE":30.0893,"ARG_OF_PERICENTER":111.5173,"MEAN_ANOMALY":248.6128,"EPHEMERIS_TYPE":0,"CLASSIFICATION_TYPE":"U","NORAD_CAT_ID":49101,"ELEMENT_SET_NO":999,"REV_AT_EPOCH":20912,"BSTAR":0.0012616499,"MEAN_MOTION_DOT":4.67e-6,"MEAN_MOTION_DDOT":0},{"OBJECT_NAME":"ONEWEB-0316","OBJECT_ID":"2021-075AD","EPOCH":"2025-11-30T14:09:41.913216","MEAN_MOTION":13.18685162,"ECCENTRICITY":0.00017613,"INCLINATION":87.9193,"RA_OF_ASC_NODE":14.9125,"ARG_OF_PERICENTER":99.9922,"MEAN_ANOMALY":260.1409,"EPHEMERIS_TYPE":0,"CLASSIFICATION_TYPE":"U","NORAD_CAT_ID":49102,"ELEMENT_SET_NO":999,"REV_AT_EPOCH":21103,"BSTAR":-4.4428789e-5,"MEAN_MOTION_DOT":-5.0e-8,"MEAN_MOTION_DDOT":0},{"OBJECT_NAME":"ONEWEB-0317","OBJECT_ID":"2021-075AE","EPOCH":"2025-11-30T14:31:20.508672","MEAN_MOTION":13.12443734,"ECCENTRICITY":0.00021255,"INCLINATION":87.8957,"RA_OF_ASC_NODE":30.1079,"ARG_OF_PERICENTER":78.8588,"MEAN_ANOMALY":281.2779,"EPHEMERIS_TYPE":0,"CLASSIFICATION_TYPE":"U","NORAD_CAT_ID":49103,"ELEMENT_SET_NO":999,"REV_AT_EPOCH":20914,"BSTAR":0.00091964024,"MEAN_MOTION_DOT":3.44e-6,"MEAN_MOTION_DDOT":0},{"OBJECT_NAME":"ONEWEB-0318","OBJECT_ID":"2021-075AF","EPOCH":"2025-11-30T14:04:56.642016","MEAN_MOTION":13.1868505,"ECCENTRICITY":0.00016128,"INCLINATION":87.9193,"RA_OF_ASC_NODE":14.9004,"ARG_OF_PERICENTER":104.9682,"MEAN_ANOMALY":255.1629,"EPHEMERIS_TYPE":0,"CLASSIFICATION_TYPE":"U","NORAD_CAT_ID":49104,"ELEMENT_SET_NO":999,"REV_AT_EPOCH":21099,"BSTAR":-5.5536032e-5,"MEAN_MOTION_DOT":-9.0e-8,"MEAN_MOTION_DDOT":0},{"OBJECT_NAME":"ONEWEB-0319","OBJECT_ID":"2021-075AG","EPOCH":"2025-11-30T14:24:27.480384","MEAN_MOTION":13.17649112,"ECCENTRICITY":0.00014319,"INCLINATION":87.9122,"RA_OF_ASC_NODE":45.3629,"ARG_OF_PERICENTER":112.5552,"MEAN_ANOMALY":247.5731,"EPHEMERIS_TYPE":0,"CLASSIFICATION_TYPE":"U","NORAD_CAT_ID":49105,"ELEMENT_SET_NO":999,"REV_AT_EPOCH":20745,"BSTAR":-2.5514081e-5,"MEAN_MOTION_DOT":3.0e-8,"MEAN_MOTION_DDOT":0},{"OBJECT_NAME":"ONEWEB-0323","OBJECT_ID":"2021-075AH","EPOCH":"2025-11-30T14:17:19.757184","MEAN_MOTION":13.1244423,"ECCENTRICITY":0.00012161,"INCLINATION":87.8954,"RA_OF_ASC_NODE":30.0963,"ARG_OF_PERICENTER":118.3991,"MEAN_ANOMALY":241.726,"EPHEMERIS_TYPE":0,"CLASSIFICATION_TYPE":"U","NORAD_CAT_ID":49106,"ELEMENT_SET_NO":999,"REV_AT_EPOCH":20850,"BSTAR":0.0004177835,"MEAN_MOTION_DOT":1.63e-6,"MEAN_MOTION_DDOT":0},{"OBJECT_NAME":"ONEWEB-0329","OBJECT_ID":"2021-075AJ","EPOCH":"2025-11-30T14:36:37.320192","MEAN_MOTION":13.17648901,"ECCENTRICITY":0.00016008,"INCLINATION":87.9121,"RA_OF_ASC_NODE":45.3631,"ARG_OF_PERICENTER":101.8626,"MEAN_ANOMALY":258.2685,"EPHEMERIS_TYPE":0,"CLASSIFICATION_TYPE":"U","NORAD_CAT_ID":49107,"ELEMENT_SET_NO":999,"REV_AT_EPOCH":20743,"BSTAR":-0.00021733915,"MEAN_MOTION_DOT":-7.2e-7,"MEAN_MOTION_DDOT":0},{"OBJECT_NAME":"ONEWEB-0330","OBJECT_ID":"2021-075AK","EPOCH":"2025-11-30T14:37:49.232640","MEAN_MOTION":13.17648649,"ECCENTRICITY":0.00015552,"INCLINATION":87.9123,"RA_OF_ASC_NODE":45.3683,"ARG_OF_PERICENTER":95.5201,"MEAN_ANOMALY":264.6108,"EPHEMERIS_TYPE":0,"CLASSIFICATION_TYPE":"U","NORAD_CAT_ID":49108,"ELEMENT_SET_NO":999,"REV_AT_EPOCH":20747,"BSTAR":-0.00011341098,"MEAN_MOTION_DOT":-3.1e-7,"MEAN_MOTION_DDOT":0},{"OBJECT_NAME":"ONEWEB-0292","OBJECT_ID":"2021-083A","EPOCH":"2025-11-30T11:51:55.744416","MEAN_MOTION":13.13470555,"ECCENTRICITY":0.00016794,"INCLINATION":87.8978,"RA_OF_ASC_NODE":359.7541,"ARG_OF_PERICENTER":98.7538,"MEAN_ANOMALY":261.3781,"EPHEMERIS_TYPE":0,"CLASSIFICATION_TYPE":"U","NORAD_CAT_ID":49186,"ELEMENT_SET_NO":999,"REV_AT_EPOCH":20484,"BSTAR":-0.00078950519,"MEAN_MOTION_DOT":-2.76e-6,"MEAN_MOTION_DDOT":0},{"OBJECT_NAME":"ONEWEB-0303","OBJECT_ID":"2021-083B","EPOCH":"2025-11-30T14:00:11.884032","MEAN_MOTION":13.18685101,"ECCENTRICITY":0.00016644,"INCLINATION":87.9197,"RA_OF_ASC_NODE":14.9023,"ARG_OF_PERICENTER":102.9275,"MEAN_ANOMALY":257.2043,"EPHEMERIS_TYPE":0,"CLASSIFICATION_TYPE":"U","NORAD_CAT_ID":49187,"ELEMENT_SET_NO":999,"REV_AT_EPOCH":20380,"BSTAR":-1.1109401e-5,"MEAN_MOTION_DOT":9.0e-8,"MEAN_MOTION_DDOT":0},{"OBJECT_NAME":"ONEWEB-0306","OBJECT_ID":"2021-083C","EPOCH":"2025-11-30T08:18:09.705024","MEAN_MOTION":13.18685216,"ECCENTRICITY":0.00019478,"INCLINATION":87.9194,"RA_OF_ASC_NODE":14.9346,"ARG_OF_PERICENTER":91.0089,"MEAN_ANOMALY":269.1267,"EPHEMERIS_TYPE":0,"CLASSIFICATION_TYPE":"U","NORAD_CAT_ID":49188,"ELEMENT_SET_NO":999,"REV_AT_EPOCH":20381,"BSTAR":5.8826771e-5,"MEAN_MOTION_DOT":3.6e-7,"MEAN_MOTION_DDOT":0},{"OBJECT_NAME":"ONEWEB-0307","OBJECT_ID":"2021-083D","EPOCH":"2025-11-30T11:43:23.376000","MEAN_MOTION":13.13469127,"ECCENTRICITY":0.00017758,"INCLINATION":87.8976,"RA_OF_ASC_NODE":359.7472,"ARG_OF_PERICENTER":94.5276,"MEAN_ANOMALY":265.6056,"EPHEMERIS_TYPE":0,"CLASSIFICATION_TYPE":"U","NORAD_CAT_ID":49189,"ELEMENT_SET_NO":999,"REV_AT_EPOCH":20484,"BSTAR":-0.0008497511,"MEAN_MOTION_DOT":-2.98e-6,"MEAN_MOTION_DDOT":0},{"OBJECT_NAME":"ONEWEB-0320","OBJECT_ID":"2021-083E","EPOCH":"2025-11-30T12:07:22.910592","MEAN_MOTION":13.18683934,"ECCENTRICITY":0.00018006,"INCLINATION":87.919,"RA_OF_ASC_NODE":14.9325,"ARG_OF_PERICENTER":96.4513,"MEAN_ANOMALY":263.6824,"EPHEMERIS_TYPE":0,"CLASSIFICATION_TYPE":"U","NORAD_CAT_ID":49190,"ELEMENT_SET_NO":999,"REV_AT_EPOCH":20379,"BSTAR":-2.5821443e-5,"MEAN_MOTION_DOT":3.0e-8,"MEAN_MOTION_DDOT":0},{"OBJECT_NAME":"ONEWEB-0321","OBJECT_ID":"2021-083F","EPOCH":"2025-11-30T11:46:50.969280","MEAN_MOTION":13.20769622,"ECCENTRICITY":0.00020766,"INCLINATION":87.9192,"RA_OF_ASC_NODE":314.0599,"ARG_OF_PERICENTER":79.8824,"MEAN_ANOMALY":280.2544,"EPHEMERIS_TYPE":0,"CLASSIFICATION_TYPE":"U","NORAD_CAT_ID":49191,"ELEMENT_SET_NO":999,"REV_AT_EPOCH":21060,"BSTAR":0.00021278936,"MEAN_MOTION_DOT":1.0e-6,"MEAN_MOTION_DDOT":0},{"OBJECT_NAME":"ONEWEB-0322","OBJECT_ID":"2021-083G","EPOCH":"2025-11-30T11:37:18.181344","MEAN_MOTION":13.1346995,"ECCENTRICITY":0.00022293,"INCLINATION":87.898,"RA_OF_ASC_NODE":359.7501,"ARG_OF_PERICENTER":89.4549,"MEAN_ANOMALY":270.6836,"EPHEMERIS_TYPE":0,"CLASSIFICATION_TYPE":"U","NORAD_CAT_ID":49192,"ELEMENT_SET_NO":999,"REV_AT_EPOCH":20483,"BSTAR":-0.00090064824,"MEAN_MOTION_DOT":-3.16e-6,"MEAN_MOTION_DDOT":0}]
